NORAD_CAT_ID,OBJECT_NAME,OBJECT_TYPE,EPOCH,MEAN_MOTION,ECCENTRICITY,INCLINATION,RA_OF_ASC_NODE,ARG_OF_PERICENTER,MEAN_ANOMALY,BSTAR,MEAN_MOTION_DOT,MEAN_MOTION_DDOT,TLE_LINE0,TLE_LINE1,TLE_LINE2,SEMIMAJOR_AXIS,PERIOD,APOGEE,PERIGEE,DECAYED
55638.0,STARLINK-5507,PAYLOAD,2023-03-04 10:00:01,15.73810664,0.0003482,70.0002,108.7893,278.5391,266.3627,-0.0076605,-0.00968758,0.0,0 STARLINK-5507,1 55638U 23021L   23063.41668981 -.00968758  00000-0 -76605-2 0  9993,2 55638  70.0002 108.7893 0003482 278.5391 266.3627 15.73810664  2843,6726.155,91.498,350.362,345.678,0.0
55638.0,STARLINK-5507,PAYLOAD,2023-03-04 14:00:01,15.73476611,0.0003557,69.9941,108.3103,277.8235,130.8838,-0.0078934,-0.00998388,0.0,0 STARLINK-5507,1 55638U 23021L   23063.58334491 -.00998388  00000-0 -78934-2 0  9996,2 55638  69.9941 108.3103 0003557 277.8235 130.8838 15.73476611  1303,6727.107,91.517,351.364,346.579,0.0
55638.0,STARLINK-5507,PAYLOAD,2023-03-04 22:00:00,15.72712972,0.0003331,69.994,107.3687,271.547,224.3315,-0.0074598,-0.00906612,0.0,0 STARLINK-5507,1 55638U 23021L   23063.91667824 -.00906612  00000-0 -74598-2 0  9993,2 55638  69.9940 107.3687 0003331 271.5470 224.3315 15.72712972  1301,6729.284,91.562,353.391,348.908,0.0
55638.0,STARLINK-5507,PAYLOAD,2023-03-05 08:00:01,15.71863704,0.0003685,69.9938,106.193,272.0146,61.6625,-0.008375,-0.00989623,0.0,0 STARLINK-5507,1 55638U 23021L   23064.33335648 -.00989623  00000-0 -83750-2 0  9999,2 55638  69.9938 106.1930 0003685 272.0146  61.6625 15.71863704  2984,6731.708,91.611,356.053,351.092,0.0
55638.0,STARLINK-5507,PAYLOAD,2023-03-05 14:00:01,15.71335487,0.0003748,69.9933,105.4885,275.3164,32.2961,-0.0084482,-0.00977434,0.0,0 STARLINK-5507,1 55638U 23021L   23064.58334491 -.00977434  00000-0 -84482-2 0  9991,2 55638  69.9933 105.4885 0003748 275.3164  32.2961 15.71335487  1300,6733.216,91.642,357.605,352.558,0.0
55638.0,STARLINK-5507,PAYLOAD,2023-03-05 22:00:00,15.70505175,0.0003667,69.9933,104.5496,269.6506,122.5927,-0.0060825,-0.00690999,0.0,0 STARLINK-5507,1 55638U 23021L   23064.91667824 -.00690999  00000-0 -60825-2 0  9990,2 55638  69.9933 104.5496 0003667 269.6506 122.5927 15.70505175  1301,6735.589,91.69,359.924,354.984,0.0
55638.0,STARLINK-5507,PAYLOAD,2023-03-06 08:00:01,15.69902662,0.0003539,69.9942,103.3775,273.0792,313.7398,0.0001661,0.00019789,0.0,0 STARLINK-5507,1 55638U 23021L   23065.33334491  .00019789  00000-0  16610-3 0  9992,2 55638  69.9942 103.3775 0003539 273.0792 313.7398 15.69902662  3142,6737.312,91.725,361.562,356.793,0.0
55638.0,STARLINK-5507,PAYLOAD,2023-03-06 22:00:00,15.69841291,0.0003458,69.9969,101.7369,265.7658,16.8845,0.00063385,0.00076438,0.0,0 STARLINK-5507,1 55638U 23021L   23065.91667824  .00076438  00000-0  63385-3 0  9990,2 55638  69.9969 101.7369 0003458 265.7658  16.8845 15.69841291  3239,6737.488,91.729,361.683,357.023,0.0
55638.0,STARLINK-5507,PAYLOAD,2023-03-07 08:00:01,15.69872542,0.0003524,69.9987,100.5655,267.9659,208.7416,0.00057256,0.00069056,0.0,0 STARLINK-5507,1 55638U 23021L   23066.33334491  .00069056  00000-0  57256-3 0  9996,2 55638  69.9987 100.5655 0003524 267.9659 208.7416 15.69872542  3300,6737.399,91.727,361.638,356.889,0.0
55638.0,STARLINK-5507,PAYLOAD,2023-03-07 14:00:01,15.69936769,0.0003456,69.9984,99.8624,270.6325,178.5616,0.00059075,0.00071466,0.0,0 STARLINK-5507,1 55638U 23021L   23066.58334491  .00071466  00000-0  59075-3 0  9992,2 55638  69.9984  99.8624 0003456 270.6325 178.5616 15.69936769  3340,6737.215,91.723,361.408,356.752,0.0
55638.0,STARLINK-5507,PAYLOAD,2023-03-07 22:00:00,15.69985125,0.0003495,69.9994,98.9247,266.1529,266.4292,-0.00037425,-0.00045087,0.0,0 STARLINK-5507,1 55638U 23021L   23066.91667824 -.00045087  00000-0 -37425-3 0  9995,2 55638  69.9994  98.9247 0003495 266.1529 266.4292 15.69985125  1302,6737.077,91.721,361.296,356.587,0.0
55638.0,STARLINK-5507,PAYLOAD,2023-03-08 06:00:00,15.69915709,0.0003467,70.0004,97.9872,272.7502,343.2224,-0.00011143,-0.00013585,0.0,0 STARLINK-5507,1 55638U 23021L   23067.25001157 -.00013585  00000-0 -11143-3 0  9991,2 55638  70.0004  97.9872 0003467 272.7502 343.2224 15.69915709  3440,6737.275,91.725,361.476,356.804,0.0
55638.0,STARLINK-5507,PAYLOAD,2023-03-08 16:00:00,15.69995143,0.0003409,70.0003,96.8157,274.7986,175.3246,-0.0010876,-0.00129376,0.0,0 STARLINK-5507,1 55638U 23021L   23067.66667824 -.00129376  00000-0 -10876-2 0  9992,2 55638  70.0003  96.8157 0003409 274.7986 175.3246 15.69995143  3513,6737.048,91.72,361.21,356.616,0.0
55638.0,STARLINK-5507,PAYLOAD,2023-03-08 22:00:00,15.69850048,0.0003439,70.0005,96.113,265.7607,156.9174,0.0010513,0.00127748,0.0,0 STARLINK-5507,1 55638U 23021L   23067.91667824  .00127748  00000-0  10513-2 0  9997,2 55638  70.0005  96.1130 0003439 265.7607 156.9174 15.69850048  1306,6737.463,91.729,361.645,357.011,0.0
55638.0,STARLINK-5507,PAYLOAD,2023-03-09 00:47:32,15.70029227,0.0003842,69.998,95.7861,265.1563,94.9194,0.00048633,0.00058938,0.0,0 STARLINK-5507,1 55638U 23021L   23068.03302078  .00058938  00000-0  48633-3 0  9997,2 55638  69.9980  95.7861 0003842 265.1563  94.9194 15.70029227  3566,6736.95,91.718,361.404,356.227,0.0
55638.0,STARLINK-5507,PAYLOAD,2023-03-09 05:22:50,15.6987108,0.000339,69.9981,95.2485,251.3152,108.7676,-0.00032845,-0.00039435,0.0,0 STARLINK-5507,1 55638U 23021L   23068.22419760 -.00039435  00000-0 -32845-3 0  9996,2 55638  69.9981  95.2485 0003390 251.3152 108.7676 15.69871080  3595,6737.403,91.727,361.552,356.984,0.0
55638.0,STARLINK-5507,PAYLOAD,2023-03-09 19:08:35,15.69948949,0.0003519,69.9998,93.6366,268.1887,91.8906,0.00014553,0.00017341,0.0,0 STARLINK-5507,1 55638U 23021L   23068.79763515  .00017341  00000-0  14553-3 0  9994,2 55638  69.9998  93.6366 0003519 268.1887  91.8906 15.69948949  3684,6737.18,91.723,361.416,356.674,0.0
55638.0,STARLINK-5507,PAYLOAD,2023-03-10 04:19:06,15.69929413,0.0003495,70.0001,92.5616,266.5247,93.5549,3.8406e-05,4.409e-05,0.0,0 STARLINK-5507,1 55638U 23021L   23069.17993877  .00004409  00000-0  38406-4 0  9998,2 55638  70.0001  92.5616 0003495 266.5247  93.5549 15.69929413  3747,6737.236,91.724,361.456,356.746,0.0
55638.0,STARLINK-5507,PAYLOAD,2023-03-10 18:04:52,15.69924472,0.0003475,70.0003,90.9492,266.6313,93.4485,1.7099e-05,1.844e-05,0.0,0 STARLINK-5507,1 55638U 23021L   23069.75339070  .00001844  00000-0  17099-4 0  9996,2 55638  70.0003  90.9492 0003475 266.6313  93.4485 15.69924472  3834,6737.25,91.724,361.456,356.774,0.0
55638.0,STARLINK-5507,PAYLOAD,2023-03-11 04:47:09,15.6990854,0.0003391,70.0006,89.6953,267.8309,92.2499,-2.8684e-05,-3.658e-05,0.0,0 STARLINK-5507,1 55638U 23021L   23070.19941422 -.00003658  00000-0 -28684-4 0  9995,2 55638  70.0006  89.6953 0003391 267.8309  92.2499 15.69908540  3907,6737.296,91.725,361.445,356.876,0.0
55638.0,STARLINK-5507,PAYLOAD,2023-03-11 10:54:09,15.69924868,0.000275,70.0003,88.9782,249.4411,110.649,2.2129e-05,2.449e-05,0.0,0 STARLINK-5507,1 55638U 23021L   23070.45427761  .00002449  00000-0  22129-4 0  9992,2 55638  70.0003  88.9782 0002750 249.4411 110.6490 15.69924868  3945,6737.249,91.724,360.967,357.261,0.0
55638.0,STARLINK-5507,PAYLOAD,2023-03-11 12:25:53,15.69943188,0.0003635,70.0002,88.7992,263.334,96.7442,6.8338e-05,8.019e-05,0.0,0 STARLINK-5507,1 55638U 23021L   23070.51798584  .00008019  00000-0  68338-4 0  9994,2 55638  70.0002  88.7992 0003635 263.3340  96.7442 15.69943188  4267,6737.197,91.723,361.511,356.613,0.0
55638.0,STARLINK-5507,PAYLOAD,2023-03-12 02:11:40,15.69930318,0.0003056,70.0004,87.1869,266.2251,93.8595,2.7521e-05,3.098e-05,0.0,0 STARLINK-5507,1 55638U 23021L   23071.09144151  .00003098  00000-0  27521-4 0  9994,2 55638  70.0004  87.1869 0003056 266.2251  93.8595 15.69930318  4049,6737.233,91.724,361.157,357.039,0.0
55638.0,STARLINK-5507,PAYLOAD,2023-03-12 03:43:25,15.69931456,0.0003032,70.0009,87.0072,266.347,93.7379,2.7794e-05,3.132e-05,0.0,0 STARLINK-5507,1 55638U 23021L   23071.15515748  .00003132  00000-0  27794-4 0  9996,2 55638  70.0009  87.0072 0003032 266.3470  93.7379 15.69931456  4365,6737.23,91.724,361.138,357.052,0.0
55638.0,STARLINK-5507,PAYLOAD,2023-03-12 12:53:54,15.69972284,0.0004711,70.0011,85.9344,291.5454,68.5239,0.00012541,0.00014927,0.0,0 STARLINK-5507,1 55638U 23021L   23071.53743715  .00014927  00000-0  12541-3 0  9992,2 55638  70.0011  85.9344 0004711 291.5454  68.5239 15.69972284  4116,6737.113,91.721,362.152,355.804,0.0
55638.0,STARLINK-5507,PAYLOAD,2023-03-13 17:59:51,15.67930922,0.000474,69.9999,82.541,254.0413,106.026,-0.0027618,-0.00295768,0.0,0 STARLINK-5507,1 55638U 23021L   23072.74990251 -.00295768  00000-0 -27618-2 0  9991,2 55638  69.9999  82.5410 0004740 254.0413 106.0260 15.67930922  4311,6742.96,91.841,368.021,361.628,0.0
55638.0,STARLINK-5507,PAYLOAD,2023-03-14 06:00:00,15.64672465,0.0003638,70.0015,81.1423,270.0216,26.8241,-0.01345,-0.01180478,0.0,0 STARLINK-5507,1 55638U 23021L   23073.25001157 -.01180478  00000-0 -13450-1 0  9996,2 55638  70.0015  81.1423 0003638 270.0216  26.8241 15.64672465  4383,6752.318,92.032,376.639,371.726,0.0
55638.0,STARLINK-5507,PAYLOAD,2023-03-14 14:00:01,15.63864271,0.0003626,70.0014,80.2131,272.3823,100.9762,-0.014775,-0.01248103,0.0,0 STARLINK-5507,1 55638U 23021L   23073.58334491 -.01248103  00000-0 -14775-1 0  9993,2 55638  70.0014  80.2131 0003626 272.3823 100.9762 15.63864271  1302,6754.644,92.08,378.958,374.06,0.0
55638.0,STARLINK-5507,PAYLOAD,2023-03-14 22:00:00,15.62958028,0.0003453,70.0017,79.2852,267.5553,181.3195,-0.014117,-0.01159748,0.0,0 STARLINK-5507,1 55638U 23021L   23073.91667824 -.01159748  00000-0 -14117-1 0  9995,2 55638  70.0017  79.2852 0003453 267.5553 181.3195 15.62958028  4496,6757.255,92.133,381.453,376.787,0.0
55638.0,STARLINK-5507,PAYLOAD,2023-03-15 06:00:00,15.62086518,0.0003393,70.002,78.3584,272.6433,250.7197,-0.014638,-0.01161925,0.0,0 STARLINK-5507,1 55638U 23021L   23074.25001157 -.01161925  00000-0 -14638-1 0  9992,2 55638  70.0020  78.3584 0003393 272.6433 250.7197 15.62086518  4544,6759.768,92.184,383.927,379.339,0.0
